ZY-1 02D                
1 44528U 19059A   23279.54579985  .00000472  00000+0  17930-3 0  9997
2 44528  98.4391 352.9896 0001323 120.1808 239.9509 14.35412585213089
TAURUS-1 (JINNIUZUO 1)  
1 44530U 19059C   23279.61190211  .00010287  00000+0  25929-2 0  9990
2 44530  98.5602  29.2460 0013602 113.9496 246.3124 14.51241779214792
ZHUHAI-1 03A            
1 44534U 19060A   23279.59864343  .00052395  00000+0  13617-2 0  9994
2 44534  97.4867  36.2976 0014612 196.5217 163.5554 15.38661701224860
ZHUHAI-1 03B            
1 44536U 19060C   23279.58150810  .00046304  00000+0  12082-2 0  9990
2 44536  97.4893  36.6146 0006379 210.8715 149.2156 15.38658411224872
ZHUHAI-1 03C            
1 44537U 19060D   23279.57100124  .00046826  00000+0  12321-2 0  9998
2 44537  97.4807  35.2158 0009425 239.7045 120.3268 15.38373173224870
ZHUHAI-1 03D            
1 44538U 19060E   23279.55694088  .00047446  00000+0  12411-2 0  9993
2 44538  97.4757  34.7055 0007081 237.5896 122.4664 15.38570802224872
ZHUHAI-1 03E            
1 44539U 19060F   23279.58906489  .00047969  00000+0  12275-2 0  9996
2 44539  97.4925  37.0227 0010230 226.6634 133.3759 15.39215625224883
ATLAS 5 CENTAUR DEB     
1 44694U 18079BG  23278.31001411 -.00000053  00000+0  00000+0 0  9992
2 44694  11.5463 122.6378 4806319 138.1167 270.9673  1.77414774 29069
GAOFEN-7                
1 44703U 19072A   23279.59183658  .00010776  00000+0  48240-3 0  9996
2 44703  97.3631 354.1052 0001486  87.9850 272.1556 15.21446514217949
HUANGPU-1               
1 44705U 19072C   23279.54510774  .00303927  00000+0  18794-2 0  9999
2 44705  97.3633  14.8293 0007230 240.9170 119.1372 15.76215035219343
STARLINK-1010           
1 44716U 19074D   23279.51189954 -.00002922  00000+0 -17727-3 0  9991
2 44716  53.0533 200.3382 0003792  72.7950 287.3454 15.06396532215317
JILIN-1 GAOFEN 2A       
1 44777U 19075A   23279.58576025  .00012393  00000+0  67973-3 0  9994
2 44777  97.6163 339.0797 0006344 102.8399 257.3541 15.14297453214825
NINGXIA-1 1             
1 44779U 19076A   23279.52760725  .00000076  00000+0  13457-3 0  9996
2 44779  45.0061 259.2295 0010027 185.3169 174.7559 14.01807068199682
NINGXIA-1 5             
1 44783U 19076E   23279.54166409  .00000059  00000+0  12321-3 0  9992
2 44783  45.0057 258.5368 0010864 172.4042 187.6958 14.01814024199609
KL-ALPHA A              
1 44785U 19077A   23279.58517314  .00000111  00000+0  14142-3 0  9996
2 44785  88.9212 331.7227 0013080  98.7390 261.5246 13.55877931192303
COSMOS 2542             
1 44797U 19079A   23278.92432642  .00494859  00000+0  16990-2 0  9996
2 44797  97.6378  23.3752 0003822 163.2655 196.8744 15.88471096213473
CARTOSAT-3              
1 44804U 19081A   23279.60747109  .00008135  00000+0  38872-3 0  9993
2 44804  97.3335 334.4630 0011828 354.9608   5.1505 15.19214001213983
FLOCK 4P-7              
1 44816U 19081N   23279.15110431  .00063415  00000+0  10307-2 0  9992
2 44816  97.3426 351.7005 0004120 315.5591  44.5331 15.52482852215047
FLOCK 4P-5              
1 44818U 19081Q   23279.58533893  .00061897  00000+0  10820-2 0  9994
2 44818  97.3422 351.2737 0005361 320.3746  39.7113 15.50433573215055
JILIN-1 GAOFEN 2B       
1 44836U 19086A   23279.56488567  .00012308  00000+0  67477-3 0  9998
2 44836  97.6148 339.5823 0009424 158.1489 202.0146 15.14294304211215
TIANYI-16 (TY-16)       
1 44840U 19087C   23279.54050515  .00058649  00000+0  10675-2 0  9995
2 44840  97.5151  93.1118 0006475  20.4079 339.7429 15.49289341213477
TIANQI-4A               
1 44842U 19087E   23279.55376589  .00054734  00000+0  10440-2 0  9991
2 44842  97.5071  91.6034 0006619  15.4540 344.6910 15.47960485213504
TIANQI-4B               
1 44843U 19087F   23279.50480175  .00040776  00000+0  96649-3 0  9991
2 44843  97.5242  90.4871 0009424  32.4460 327.7364 15.41591760213323
TYVAK-0092              
1 44852U 19089A   23278.99055408  .00039877  00000+0  19976-2 0  9999
2 44852  36.9572 124.3478 0004928 236.8598 123.1676 15.16472801209776
TYVAK-0129              
1 44853U 19089B   23278.94091807  .00039810  00000+0  19615-2 0  9995
2 44853  36.9590 124.8791 0005085 228.8488 131.1821 15.17051454209874
DUCHIFAT-3              
1 44854U 19089C   23279.03912729  .00016727  00000+0  10563-2 0  9997
2 44854  36.9597 147.8035 0006020 159.8693 200.2289 15.08405289209638
ANGELS                  
1 44876U 19092D   23279.52126291  .00010915  00000+0  47062-3 0  9998
2 44876  97.4788 103.5446 0011798 131.4382 228.7870 15.22669541210553
OPS-SAT                 
1 44878U 19092F   23279.49230055  .00037869  00000+0  91758-3 0  9998
2 44878  97.4707 110.1413 0008553  93.5907 266.6317 15.40949663210890
TIANQIN 1 (CAS-6)       
1 44879U 19093A   23279.53350480  .00005577  00000+0  66134-3 0  9991
2 44879  97.8588 357.4623 0015147  72.2358 288.0508 14.84831545205375
ETRSS-1                 
1 44880U 19093B   23279.53082781  .00005675  00000+0  67128-3 0  9992
2 44880  97.8593 357.5265 0015484  73.6162 286.6754 14.84922919205360
TIANYAN 01              
1 44881U 19093C   23279.51559766  .00002418  00000+0  30463-3 0  9997
2 44881  97.8535 356.0479 0016008  76.6631 283.6367 14.82831764205299
TIANYAN 02              
1 44882U 19093D   23279.50125935  .00009035  00000+0  10246-2 0  9992
2 44882  97.8655 359.1119 0015943  72.4689 287.8267 14.86486311205419
CBERS 4A                
1 44883U 19093E   23279.48203464  .00003152  00000+0  40774-3 0  9998
2 44883  97.8559 355.8665 0002742 108.9449 251.2061 14.81593898205279
WEILAI 1R               
1 44884U 19093F   23279.52333635  .00007528  00000+0  86233-3 0  9999
2 44884  97.8584 358.5012 0013933  75.9387 284.3376 14.86153846205447
YUHENG                  
1 44885U 19093G   23279.50027248  .00008629  00000+0  97123-3 0  9991
2 44885  97.8612 359.4620 0014584  77.1510 283.1334 14.86825196205489
SHUNTIAN                
1 44886U 19093H   23279.49050410  .00005305  00000+0  61753-3 0  9995
2 44886  97.8655 359.9374 0015693  82.7212 277.5786 14.85614614205489
2019-093L               
1 44889U 19093L   23279.54200521  .00005740  00000+0  69083-3 0  9991
2 44889  97.8493 355.2084 0015875  67.5308 292.7585 14.84197465205214
ELEKTRO-L 3             
1 44903U 19095A   23279.59738706 -.00000105  00000+0  00000+0 0  9997
2 44903   0.0386 274.9685 0001479 285.7847 105.2910  1.00267423 13830
GONETS-M 14             
1 44905U 19096A   23279.56516183  .00000026  00000+0  11233-3 0  9995
2 44905  82.5258 335.0584 0015061 139.4801 220.7403 12.42901625171369
GONETS-M 15             
1 44906U 19096B   23279.51180443  .00000032  00000+0  15969-3 0  9994
2 44906  82.5280 335.3880 0016509 161.4202 198.7483 12.42900499171321
GONETS-M 16             
1 44907U 19096C   23279.53881699  .00000031  00000+0  15423-3 0  9992
2 44907  82.5224 334.7666 0011480 199.4881 160.5762 12.42896031171314
RS-44 & BREEZE-KM R/B   
1 44909U 19096E   23279.47458545  .00000026  00000+0  66941-4 0  9993
2 44909  82.5163 273.9921 0216303 286.8935  70.8552 12.79723147176398
JILIN-1 KUANFU 01       
1 45016U 20003A   23279.49434245  .00009321  00000+0  52383-3 0  9997
2 45016  97.6120 348.3610 0002474  77.9583 282.1925 15.13518406206555
XINGYUN-2 01            
1 45602U 20028A   23279.52398843  .00004061  00000+0  29900-3 0  9997
2 45602  97.4523 284.1320 0011283 349.8573  10.2423 15.03846949186447
XINGYUN-2 02            
1 45603U 20028B   23279.57693356  .00004754  00000+0  34873-3 0  9994
2 45603  97.5281 291.6266 0014132  47.5394 312.7024 15.03883665186455
HAIYANG-1D              
1 45721U 20036A   23279.54730202  .00000555  00000+0  21363-3 0  9998
2 45721  98.5599 217.0798 0002702 111.1067 249.0407 14.34196700173842
M2 PATHFINDER           
1 45727U 20037E   23279.48071660  .00006366  00000+0  58934-3 0  9994
2 45727  97.7643  92.9219 0010862 252.4687 107.5347 14.94819147177860
GAOFEN DUOMO (GFDM)     
1 45856U 20042A   23279.53362900  .00002377  00000+0  34594-3 0  9993
2 45856  97.8984 351.6467 0013536  35.5185 324.6923 14.76750102175681
BY70-2                  
1 45857U 20042B   23279.54906052  .00045352  00000+0  40448-2 0  9991
2 45857  97.9178   0.1780 0007332 357.7103   2.4082 14.95785839176154
ZINYUAN-3               
1 45939U 20051A   23279.56504008  .00012856  00000+0  57465-3 0  9990
2 45939  97.3913 355.9766 0011774 158.3180 201.8556 15.21394526177641
TIANQI-10               
1 45941U 20051C   23279.50747098  .00052165  00000+0  10225-2 0  9994
2 45941  97.4131  12.4895 0008275  96.4469 263.7724 15.47169171178648
Q-SAT                   
1 46026U 20054B   23279.54471478  .00052854  00000+0  10802-2 0  9998
2 46026  97.3610   2.9369 0010970 128.9343 231.2885 15.45919473176711
GLOBAL-7                
1 46088U 20055BP  23279.41558569  .00460843  95345-4  12279-2 0  9992
2 46088  52.9833  67.1874 0004453 300.1569  59.9015 15.94014437184786
GLOBAL-8                
1 46089U 20055BQ  23279.55466313  .00066416  00000+0  92133-3 0  9998
2 46089  52.9886  89.8694 0007027 201.1818 158.8902 15.56427249184481
TIANTUO 5               
1 46234U 20058C   23279.52188748  .00012049  00000+0  40398-3 0  9992
2 46234  97.3411 334.6054 0013592 202.0782 157.9875 15.30963522173731
TYVAK-0172              
1 46267U 20059C   23279.53396642  .00017656  00000+0  15178-2 0  9990
2 46267  97.8514 114.9638 0006095  22.2284 337.9201 14.97463991168556
ION-MK01                
1 46274U 20061C   23279.46254999  .00014303  00000+0  59849-3 0  9991
2 46274  97.3374 343.4261 0003737 259.3579 100.7238 15.23671417171110
UPMSAT-2                
1 46276U 20061E   23279.14786968  .00017141  00000+0  67483-3 0  9990
2 46276  97.3345 344.5017 0000664  42.4024 317.7266 15.25687245171190
NEMO-HD                 
1 46277U 20061F   23279.51658876  .00010094  00000+0  44347-3 0  9992
2 46277  97.3347 343.3997 0000998  33.9440 326.1860 15.22103871171159
